64614,STARLINK-34440,2025,93.53,-1.0,+,53.16,Active,0,LEO,USA,USA,Unknown,Unknown,Unknown,1 64614U 25137W   25301.51681066  .00054975  00000+0  13730-2 0  9998,2 64614  53.1584 233.7816 0001130  80.1242 279.9890 15.39652131 20430,15.39652131,0.000113,LEO
64615,STARLINK-34469,2025,93.53,-1.0,+,53.16,Active,0,LEO,USA,USA,Unknown,Unknown,Unknown,1 64615U 25137X   25301.14589715  .00060703  00000+0  15144-2 0  9993,2 64615  53.1603 235.7329 0001187 132.1821 227.9285 15.39642288 20373,15.39642288,0.0001187,LEO
64616,STARLINK-34413,2025,93.53,-1.0,+,53.16,Active,0,LEO,USA,USA,Unknown,Unknown,Unknown,1 64616U 25137Y   25301.13660994  .00065125  00000+0  16235-2 0  9997,2 64616  53.1587 235.6745 0001405 148.0228 212.0863 15.39633256 20479,15.39633256,0.0001405,LEO
64617,STARLINK-34417,2025,93.53,-1.0,+,53.16,Active,0,LEO,USA,USA,Unknown,Unknown,Unknown,1 64617U 25137Z   25301.48142334  .00060585  00000+0  15113-2 0  9998,2 64617  53.1583 221.9795 0001152  87.4596 272.6541 15.39645602 20699,15.39645602,0.0001152,LEO
64618,STARLINK-34415,2025,93.53,-1.0,+,53.16,Active,0,LEO,USA,USA,Unknown,Unknown,Unknown,1 64618U 25137AA  25301.12268707  .00072683  00000+0  18111-2 0  9996,2 64618  53.1578 235.5873 0000893  88.8811 271.2296 15.39597826 20379,15.39597826,8.93e-05,LEO
64619,STARLINK-34416,2025,93.53,-1.0,+,53.16,Active,0,LEO,USA,USA,Unknown,Unknown,Unknown,1 64619U 25137AB  25301.11803473  .00067050  00000+0  16701-2 0  9996,2 64619  53.1576 235.5567 0000885 100.1020 260.0085 15.39646302 20375,15.39646302,8.85e-05,LEO
64620,STARLINK-34414,2025,93.53,-1.0,+,53.16,Active,0,LEO,USA,USA,Unknown,Unknown,Unknown,1 64620U 25137AC  25301.10410718  .00044251  00000+0  11096-2 0  9993,2 64620  53.1582 235.4693 0000896  68.5159 291.5941 15.39625538 20373,15.39625538,8.96e-05,LEO
64664,STARLINK-34464,2025,94.11,-1.0,+,53.16,Active,0,LEO,USA,USA,Unknown,Unknown,Unknown,1 64664U 25139A   25301.63494582  .00042882  00000+0  14507-2 0  9990,2 64664  53.1602  20.5903 0001160  93.6541 266.4592 15.30220500 20060,15.302205,0.000116,LEO
64665,STARLINK-34555,2025,94.1,-1.0,+,53.16,Active,0,LEO,USA,USA,Unknown,Unknown,Unknown,1 64665U 25139B   25301.50116114  .00040340  00000+0  13664-2 0  9999,2 64665  53.1607  21.1766 0001363  85.7866 274.3290 15.30208659 19946,15.30208659,0.0001363,LEO
64666,STARLINK-34390,2025,94.11,-1.0,+,53.16,Active,0,LEO,USA,USA,Unknown,Unknown,Unknown,1 64666U 25139C   25301.59906774  .00042150  00000+0  14265-2 0  9997,2 64666  53.1595  20.3664 0001304  68.0685 292.0454 15.30214685 20126,15.30214685,0.0001304,LEO
64667,STARLINK-34382,2025,94.11,-1.0,+,53.16,Active,0,LEO,USA,USA,Unknown,Unknown,Unknown,1 64667U 25139D   25301.51698040  .00031509  00000+0  10717-2 0  9998,2 64667  53.1583  21.2752 0001137  79.7236 280.3893 15.30192561 20043,15.30192561,0.0001137,LEO
64668,STARLINK-34395,2025,94.11,-1.0,+,53.16,Active,0,LEO,USA,USA,Unknown,Unknown,Unknown,1 64668U 25139E   25301.50748459  .00035041  00000+0  11896-2 0  9992,2 64668  53.1598  21.2151 0001182  86.3923 273.7213 15.30201220 20045,15.3020122,0.0001182,LEO
64669,STARLINK-34394,2025,94.11,-1.0,+,53.16,Active,0,LEO,USA,USA,Unknown,Unknown,Unknown,1 64669U 25139F   25301.62861474  .00039180  00000+0  13277-2 0  9992,2 64669  53.1606  20.5490 0001312  66.7692 293.3447 15.30207605 20066,15.30207605,0.0001312,LEO
64670,STARLINK-34287,2025,94.11,-1.0,+,53.16,Active,0,LEO,USA,USA,Unknown,Unknown,Unknown,1 64670U 25139G   25301.49165286  .00035186  00000+0  11937-2 0  9990,2 64670  53.1615  21.1174 0001734  82.2810 277.8387 15.30222421 20048,15.30222421,0.0001734,LEO
64671,STARLINK-34365,2025,94.11,-1.0,+,53.16,Active,0,LEO,USA,USA,Unknown,Unknown,Unknown,1 64671U 25139H   25301.51380988  .00049790  00000+0  16802-2 0  9994,2 64671  53.1591  21.2539 0001131  72.4529 287.6596 15.30234498 20102,15.30234498,0.0001131,LEO
64672,STARLINK-34442,2025,94.1,-1.0,+,53.16,Active,0,LEO,USA,USA,Unknown,Unknown,Unknown,1 64672U 25139J   25301.60855546 -.00008350  00000+0 -27000-3 0  9994,2 64672  53.1595  20.4241 0002114  81.7722 278.3518 15.30208476 20061,15.30208476,0.0002114,LEO
