[{"OBJECT_NAME":"STARLINK-34440","OBJECT_ID":"2025-137W","EPOCH":"2025-10-28T12:24:12.441024","MEAN_MOTION":15.39652131,"ECCENTRICITY":0.00011304,"INCLINATION":53.1584,"RA_OF_ASC_NODE":233.7816,"ARG_OF_PERICENTER":80.1242,"MEAN_ANOMALY":279.989,"EPHEMERIS_TYPE":0,"CLASSIFICATION_TYPE":"U","NORAD_CAT_ID":64614,"ELEMENT_SET_NO":999,"REV_AT_EPOCH":2043,"BSTAR":0.0013730106,"MEAN_MOTION_DOT":0.00054975,"MEAN_MOTION_DDOT":0},{"OBJECT_NAME":"STARLINK-34469","OBJECT_ID":"2025-137X","EPOCH":"2025-10-28T03:30:05.513760","MEAN_MOTION":15.39642288,"ECCENTRICITY":0.00011879,"INCLINATION":53.1603,"RA_OF_ASC_NODE":235.7329,"ARG_OF_PERICENTER":132.1821,"MEAN_ANOMALY":227.9285,"EPHEMERIS_TYPE":0,"CLASSIFICATION_TYPE":"U","NORAD_CAT_ID":64615,"ELEMENT_SET_NO":999,"REV_AT_EPOCH":2037,"BSTAR":0.0015143956,"MEAN_MOTION_DOT":0.00060703,"MEAN_MOTION_DDOT":0},{"OBJECT_NAME":"STARLINK-34413","OBJECT_ID":"2025-137Y","EPOCH":"2025-10-28T03:16:43.098816","MEAN_MOTION":15.39633256,"ECCENTRICITY":0.00014059,"INCLINATION":53.1587,"RA_OF_ASC_NODE":235.6745,"ARG_OF_PERICENTER":148.0228,"MEAN_ANOMALY":212.0863,"EPHEMERIS_TYPE":0,"CLASSIFICATION_TYPE":"U","NORAD_CAT_ID":64616,"ELEMENT_SET_NO":999,"REV_AT_EPOCH":2047,"BSTAR":0.0016235259,"MEAN_MOTION_DOT":0.00065125,"MEAN_MOTION_DDOT":0},{"OBJECT_NAME":"STARLINK-34417","OBJECT_ID":"2025-137Z","EPOCH":"2025-10-28T11:33:14.976576","MEAN_MOTION":15.39645602,"ECCENTRICITY":0.00011527,"INCLINATION":53.1583,"RA_OF_ASC_NODE":221.9795,"ARG_OF_PERICENTER":87.4596,"MEAN_ANOMALY":272.6541,"EPHEMERIS_TYPE":0,"CLASSIFICATION_TYPE":"U","NORAD_CAT_ID":64617,"ELEMENT_SET_NO":999,"REV_AT_EPOCH":2069,"BSTAR":0.001511336,"MEAN_MOTION_DOT":0.00060585,"MEAN_MOTION_DDOT":0},{"OBJECT_NAME":"STARLINK-34415","OBJECT_ID":"2025-137AA","EPOCH":"2025-10-28T02:56:40.162848","MEAN_MOTION":15.39597826,"ECCENTRICITY":8.93e-5,"INCLINATION":53.1578,"RA_OF_ASC_NODE":235.5873,"ARG_OF_PERICENTER":88.8811,"MEAN_ANOMALY":271.2296,"EPHEMERIS_TYPE":0,"CLASSIFICATION_TYPE":"U","NORAD_CAT_ID":64618,"ELEMENT_SET_NO":999,"REV_AT_EPOCH":2037,"BSTAR":0.0018110864,"MEAN_MOTION_DOT":0.00072683,"MEAN_MOTION_DDOT":0},{"OBJECT_NAME":"STARLINK-34416","OBJECT_ID":"2025-137AB","EPOCH":"2025-10-28T02:49:58.200672","MEAN_MOTION":15.39646302,"ECCENTRICITY":8.859e-5,"INCLINATION":53.1576,"RA_OF_ASC_NODE":235.5567,"ARG_OF_PERICENTER":100.102,"MEAN_ANOMALY":260.0085,"EPHEMERIS_TYPE":0,"CLASSIFICATION_TYPE":"U","NORAD_CAT_ID":64619,"ELEMENT_SET_NO":999,"REV_AT_EPOCH":2037,"BSTAR":0.0016700779,"MEAN_MOTION_DOT":0.0006705,"MEAN_MOTION_DDOT":0},{"OBJECT_NAME":"STARLINK-34414","OBJECT_ID":"2025-137AC","EPOCH":"2025-10-28T02:29:54.860352","MEAN_MOTION":15.39625538,"ECCENTRICITY":8.969e-5,"INCLINATION":53.1582,"RA_OF_ASC_NODE":235.4693,"ARG_OF_PERICENTER":68.5159,"MEAN_ANOMALY":291.5941,"EPHEMERIS_TYPE":0,"CLASSIFICATION_TYPE":"U","NORAD_CAT_ID":64620,"ELEMENT_SET_NO":999,"REV_AT_EPOCH":2037,"BSTAR":0.0011096423,"MEAN_MOTION_DOT":0.00044251,"MEAN_MOTION_DDOT":0},{"OBJECT_NAME":"STARLINK-34464","OBJECT_ID":"2025-139A","EPOCH":"2025-10-28T15:14:19.318848","MEAN_MOTION":15.302205,"ECCENTRICITY":0.00011609,"INCLINATION":53.1602,"RA_OF_ASC_NODE":20.5903,"ARG_OF_PERICENTER":93.6541,"MEAN_ANOMALY":266.4592,"EPHEMERIS_TYPE":0,"CLASSIFICATION_TYPE":"U","NORAD_CAT_ID":64664,"ELEMENT_SET_NO":999,"REV_AT_EPOCH":2006,"BSTAR":0.0014506919,"MEAN_MOTION_DOT":0.00042882,"MEAN_MOTION_DDOT":0},{"OBJECT_NAME":"STARLINK-34555","OBJECT_ID":"2025-139B","EPOCH":"2025-10-28T12:01:40.322496","MEAN_MOTION":15.30208659,"ECCENTRICITY":0.00013637,"INCLINATION":53.1607,"RA_OF_ASC_NODE":21.1766,"ARG_OF_PERICENTER":85.7866,"MEAN_ANOMALY":274.329,"EPHEMERIS_TYPE":0,"CLASSIFICATION_TYPE":"U","NORAD_CAT_ID":64665,"ELEMENT_SET_NO":999,"REV_AT_EPOCH":1994,"BSTAR":0.0013663958,"MEAN_MOTION_DOT":0.0004034,"MEAN_MOTION_DDOT":0},{"OBJECT_NAME":"STARLINK-34390","OBJECT_ID":"2025-139C","EPOCH":"2025-10-28T14:22:39.452736","MEAN_MOTION":15.30214685,"ECCENTRICITY":0.00013044,"INCLINATION":53.1595,"RA_OF_ASC_NODE":20.3664,"ARG_OF_PERICENTER":68.0685,"MEAN_ANOMALY":292.0454,"EPHEMERIS_TYPE":0,"CLASSIFICATION_TYPE":"U","NORAD_CAT_ID":64666,"ELEMENT_SET_NO":999,"REV_AT_EPOCH":2012,"BSTAR":0.0014265268,"MEAN_MOTION_DOT":0.0004215,"MEAN_MOTION_DDOT":0},{"OBJECT_NAME":"STARLINK-34382","OBJECT_ID":"2025-139D","EPOCH":"2025-10-28T12:24:27.106560","MEAN_MOTION":15.30192561,"ECCENTRICITY":0.00011378,"INCLINATION":53.1583,"RA_OF_ASC_NODE":21.2752,"ARG_OF_PERICENTER":79.7236,"MEAN_ANOMALY":280.3893,"EPHEMERIS_TYPE":0,"CLASSIFICATION_TYPE":"U","NORAD_CAT_ID":64667,"ELEMENT_SET_NO":999,"REV_AT_EPOCH":2004,"BSTAR":0.0010717065,"MEAN_MOTION_DOT":0.00031509,"MEAN_MOTION_DDOT":0},{"OBJECT_NAME":"STARLINK-34395","OBJECT_ID":"2025-139E","EPOCH":"2025-10-28T12:10:46.668576","MEAN_MOTION":15.3020122,"ECCENTRICITY":0.00011826,"INCLINATION":53.1598,"RA_OF_ASC_NODE":21.2151,"ARG_OF_PERICENTER":86.3923,"MEAN_ANOMALY":273.7213,"EPHEMERIS_TYPE":0,"CLASSIFICATION_TYPE":"U","NORAD_CAT_ID":64668,"ELEMENT_SET_NO":999,"REV_AT_EPOCH":2004,"BSTAR":0.0011895954,"MEAN_MOTION_DOT":0.00035041,"MEAN_MOTION_DDOT":0},{"OBJECT_NAME":"STARLINK-34394","OBJECT_ID":"2025-139F","EPOCH":"2025-10-28T15:05:12.313536","MEAN_MOTION":15.30207605,"ECCENTRICITY":0.00013127,"INCLINATION":53.1606,"RA_OF_ASC_NODE":20.549,"ARG_OF_PERICENTER":66.7692,"MEAN_ANOMALY":293.3447,"EPHEMERIS_TYPE":0,"CLASSIFICATION_TYPE":"U","NORAD_CAT_ID":64669,"ELEMENT_SET_NO":999,"REV_AT_EPOCH":2006,"BSTAR":0.001327678,"MEAN_MOTION_DOT":0.0003918,"MEAN_MOTION_DDOT":0},{"OBJECT_NAME":"STARLINK-34287","OBJECT_ID":"2025-139G","EPOCH":"2025-10-28T11:47:58.807104","MEAN_MOTION":15.30222421,"ECCENTRICITY":0.00017344,"INCLINATION":53.1615,"RA_OF_ASC_NODE":21.1174,"ARG_OF_PERICENTER":82.281,"MEAN_ANOMALY":277.8387,"EPHEMERIS_TYPE":0,"CLASSIFICATION_TYPE":"U","NORAD_CAT_ID":64670,"ELEMENT_SET_NO":999,"REV_AT_EPOCH":2004,"BSTAR":0.0011936517,"MEAN_MOTION_DOT":0.00035186,"MEAN_MOTION_DDOT":0},{"OBJECT_NAME":"STARLINK-34365","OBJECT_ID":"2025-139H","EPOCH":"2025-10-28T12:19:53.173632","MEAN_MOTION":15.30234498,"ECCENTRICITY":0.00011313,"INCLINATION":53.1591,"RA_OF_ASC_NODE":21.2539,"ARG_OF_PERICENTER":72.4529,"MEAN_ANOMALY":287.6596,"EPHEMERIS_TYPE":0,"CLASSIFICATION_TYPE":"U","NORAD_CAT_ID":64671,"ELEMENT_SET_NO":999,"REV_AT_EPOCH":2010,"BSTAR":0.0016801595,"MEAN_MOTION_DOT":0.0004979,"MEAN_MOTION_DDOT":0},{"OBJECT_NAME":"STARLINK-34442","OBJECT_ID":"2025-139J","EPOCH":"2025-10-28T14:36:19.191744","MEAN_MOTION":15.30208476,"ECCENTRICITY":0.0002114,"INCLINATION":53.1595,"RA_OF_ASC_NODE":20.4241,"ARG_OF_PERICENTER":81.7722,"MEAN_ANOMALY":278.3518,"EPHEMERIS_TYPE":0,"CLASSIFICATION_TYPE":"U","NORAD_CAT_ID":64672,"ELEMENT_SET_NO":999,"REV_AT_EPOCH":2006,"BSTAR":-0.00026999531,"MEAN_MOTION_DOT":-8.35e-5,"MEAN_MOTION_DDOT":0}]
